{"type": "FeatureCollection", "features": [ {"type": "Feature", "properties": {"norad_id": 44622, "name": "GAOFEN-10R", "group": "resource", "lat": -4.217124012533792, "lon": 114.27995641590518, "alt_km": 628.5289216704496, "timestamp": "2025-12-13T08:49:15.351285+00:00", "meta": {"OBJECT_NAME": "GAOFEN-10R", "OBJECT_ID": "2019-066A", "EPOCH": "2025-12-12T23:53:45.036960", "MEAN_MOTION": 14.82794171, "ECCENTRICITY": 0.00078706, "INCLINATION": 98.0275, "RA_OF_ASC_NODE": 294.5029, "ARG_OF_PERICENTER": 41.2206, "MEAN_ANOMALY": 318.96, "EPHEMERIS_TYPE": 0, "CLASSIFICATION_TYPE": "U", "NORAD_CAT_ID": 44622, "ELEMENT_SET_NO": 999, "REV_AT_EPOCH": 33478, "BSTAR": 0.00034126891, "MEAN_MOTION_DOT": 2.707e-05, "MEAN_MOTION_DDOT": 0}, "tle": {"line1": "1 44622U 19066A   25346.99566015  .00002707  00000+0  34127-3 0  9996", "line2": "2 44622  98.0275 294.5029 0007870  41.2206 318.9600 14.82794171334785"}}, "geometry": {"type": "Point", "coordinates": [114.27995641590518, -4.217124012533792]}}, {"type": "Feature", "properties": {"norad_id": 44804, "name": "CARTOSAT-3", "group": "resource", "lat": 68.15721704159073, "lon": 27.865921105025485, "alt_km": 492.2004536539971, "timestamp": "2025-12-13T08:49:15.351295+00:00", "meta": {"OBJECT_NAME": "CARTOSAT-3", "OBJECT_ID": "2019-081A", "EPOCH": "2025-12-12T23:01:55.458624", "MEAN_MOTION": 15.19154654, "ECCENTRICITY": 0.00141908, "INCLINATION": 97.4585, "RA_OF_ASC_NODE": 46.5399, "ARG_OF_PERICENTER": 82.6502, "MEAN_ANOMALY": 277.6345, "EPHEMERIS_TYPE": 0, "CLASSIFICATION_TYPE": "U", "NORAD_CAT_ID": 44804, "ELEMENT_SET_NO": 999, "REV_AT_EPOCH": 33519, "BSTAR": 0.00033979238, "MEAN_MOTION_DOT": 7.093e-05, "MEAN_MOTION_DDOT": 0}, "tle": {"line1": "1 44804U 19081A   25346.95966966  .00007093  00000+0  33979-3 0  9997", "line2": "2 44804  97.4585  46.5399 0014190  82.6502 277.6345 15.19154654335190"}}, "geometry": {"type": "Point", "coordinates": [27.865921105025485, 68.15721704159073]}}, {"type": "Feature", "properties": {"norad_id": 44819, "name": "GAOFEN-12 01", "group": "resource", "lat": 81.33994170598427, "lon": -70.71832482047762, "alt_km": 620.571024556285, "timestamp": "2025-12-13T08:49:15.351305+00:00", "meta": {"OBJECT_NAME": "GAOFEN-12 01", "OBJECT_ID": "2019-082A", "EPOCH": "2025-12-13T00:19:23.725056", "MEAN_MOTION": 14.80657789, "ECCENTRICITY": 0.00013431, "INCLINATION": 97.8126, "RA_OF_ASC_NODE": 353.2873, "ARG_OF_PERICENTER": 231.6082, "MEAN_ANOMALY": 128.501, "EPHEMERIS_TYPE": 0, "CLASSIFICATION_TYPE": "U", "NORAD_CAT_ID": 44819, "ELEMENT_SET_NO": 999, "REV_AT_EPOCH": 32654, "BSTAR": 0.00011122527, "MEAN_MOTION_DOT": 8.04e-06, "MEAN_MOTION_DDOT": 0}, "tle": {"line1": "1 44819U 19082A   25347.01346904  .00000804  00000+0  11123-3 0  9996", "line2": "2 44819  97.8126 353.2873 0001343 231.6082 128.5010 14.80657789326547"}}, "geometry": {"type": "Point", "coordinates": [-70.71832482047762, 81.33994170598427]}}, {"type": "Feature", "properties": {"norad_id": 44873, "name": "CSG-1", "group": "resource", "lat": -20.551471346013685, "lon": -14.29460504433766, "alt_km": 628.2192512549082, "timestamp": "2025-12-13T08:49:15.351318+00:00", "meta": {"OBJECT_NAME": "CSG-1", "OBJECT_ID": "2019-092A", "EPOCH": "2025-12-12T23:49:02.636832", "MEAN_MOTION": 14.82164953, "ECCENTRICITY": 0.00014479, "INCLINATION": 97.881, "RA_OF_ASC_NODE": 168.3128, "ARG_OF_PERICENTER": 84.9752, "MEAN_ANOMALY": 275.1626, "EPHEMERIS_TYPE": 0, "CLASSIFICATION_TYPE": "U", "NORAD_CAT_ID": 44873, "ELEMENT_SET_NO": 999, "REV_AT_EPOCH": 32389, "BSTAR": 0.00012938447, "MEAN_MOTION_DOT": 9.78e-06, "MEAN_MOTION_DDOT": 0}, "tle": {"line1": "1 44873U 19092A   25346.99239163  .00000978  00000+0  12938-3 0  9998", "line2": "2 44873  97.8810 168.3128 0001447  84.9752 275.1626 14.82164953323898"}}, "geometry": {"type": "Point", "coordinates": [-14.29460504433766, -20.551471346013685]}}, {"type": "Feature", "properties": {"norad_id": 46277, "name": "NEMO-HD", "group": "resource", "lat": 48.75669800762293, "lon": -125.22730646821198, "alt_km": 440.45193099144853, "timestamp": "2025-12-13T08:49:15.351328+00:00", "meta": {"OBJECT_NAME": "NEMO-HD", "OBJECT_ID": "2020-061F", "EPOCH": "2025-12-13T00:27:36.941184", "MEAN_MOTION": 15.40335125, "ECCENTRICITY": 0.00018528, "INCLINATION": 97.2215, "RA_OF_ASC_NODE": 46.1133, "ARG_OF_PERICENTER": 56.2525, "MEAN_ANOMALY": 303.8898, "EPHEMERIS_TYPE": 0, "CLASSIFICATION_TYPE": "U", "NORAD_CAT_ID": 46277, "ELEMENT_SET_NO": 999, "REV_AT_EPOCH": 29328, "BSTAR": 0.00037624058, "MEAN_MOTION_DOT": 0.00015107, "MEAN_MOTION_DDOT": 0}, "tle": {"line1": "1 46277U 20061F   25347.01917756  .00015107  00000+0  37624-3 0  9990", "line2": "2 46277  97.2215  46.1133 0001852  56.2525 303.8898 15.40335125293285"}}, "geometry": {"type": "Point", "coordinates": [-125.22730646821198, 48.75669800762293]}}, {"type": "Feature", "properties": {"norad_id": 46984, "name": "SENTINEL-6A", "group": "resource", "lat": 56.688186771053346, "lon": -61.576464333314, "alt_km": 1336.815338100001, "timestamp": "2025-12-13T08:49:15.351339+00:00", "meta": {"OBJECT_NAME": "SENTINEL-6A", "OBJECT_ID": "2020-086A", "EPOCH": "2025-12-12T20:59:07.665792", "MEAN_MOTION": 12.80930623, "ECCENTRICITY": 0.0007733, "INCLINATION": 66.0389, "RA_OF_ASC_NODE": 162.0284, "ARG_OF_PERICENTER": 269.2327, "MEAN_ANOMALY": 90.7802, "EPHEMERIS_TYPE": 0, "CLASSIFICATION_TYPE": "U", "NORAD_CAT_ID": 46984, "ELEMENT_SET_NO": 999, "REV_AT_EPOCH": 23646, "BSTAR": 0.00013400305, "MEAN_MOTION_DOT": -3e-07, "MEAN_MOTION_DDOT": 0}, "tle": {"line1": "1 46984U 20086A   25346.87439428 -.00000030  00000+0  13400-3 0  9996", "line2": "2 46984  66.0389 162.0284 0007733 269.2327  90.7802 12.80930623236460"}}, "geometry": {"type": "Point", "coordinates": [-61.576464333314, 56.688186771053346]}}, {"type": "Feature", "properties": {"norad_id": 48079, "name": "GAOFEN-12 02", "group": "resource", "lat": 78.96612562207997, "lon": -152.58467751999558, "alt_km": 617.358999303081, "timestamp": "2025-12-13T08:49:15.351349+00:00", "meta": {"OBJECT_NAME": "GAOFEN-12 02", "OBJECT_ID": "2021-026A", "EPOCH": "2025-12-13T00:16:21.073728", "MEAN_MOTION": 14.80675726, "ECCENTRICITY": 0.00035472, "INCLINATION": 97.9852, "RA_OF_ASC_NODE": 341.0164, "ARG_OF_PERICENTER": 100.7231, "MEAN_ANOMALY": 259.4381, "EPHEMERIS_TYPE": 0, "CLASSIFICATION_TYPE": "U", "NORAD_CAT_ID": 48079, "ELEMENT_SET_NO": 999, "REV_AT_EPOCH": 25421, "BSTAR": 0.00011599243, "MEAN_MOTION_DOT": 8.39e-06, "MEAN_MOTION_DDOT": 0}, "tle": {"line1": "1 48079U 21026A   25347.01135502  .00000839  00000+0  11599-3 0  9994", "line2": "2 48079  97.9852 341.0164 0003547 100.7231 259.4381 14.80675726254214"}}, "geometry": {"type": "Point", "coordinates": [-152.58467751999558, 78.96612562207997]}}, {"type": "Feature", "properties": {"norad_id": 48268, "name": "PLEIADES NEO 3", "group": "resource", "lat": 12.897133598541815, "lon": -118.38032175467892, "alt_km": 625.0065255513691, "timestamp": "2025-12-13T08:49:15.351360+00:00", "meta": {"OBJECT_NAME": "PLEIADES NEO 3", "OBJECT_ID": "2021-034A", "EPOCH": "2025-12-12T23:57:59.263776", "MEAN_MOTION": 14.81670095, "ECCENTRICITY": 0.00013436, "INCLINATION": 97.894, "RA_OF_ASC_NODE": 59.4355, "ARG_OF_PERICENTER": 93.2352, "MEAN_ANOMALY": 266.9014, "EPHEMERIS_TYPE": 0, "CLASSIFICATION_TYPE": "U", "NORAD_CAT_ID": 48268, "ELEMENT_SET_NO": 999, "REV_AT_EPOCH": 25008, "BSTAR": 0.00012380688, "MEAN_MOTION_DOT": 9.22e-06, "MEAN_MOTION_DDOT": 0}, "tle": {"line1": "1 48268U 21034A   25346.99860259  .00000922  00000+0  12381-3 0  9996", "line2": "2 48268  97.8940  59.4355 0001343  93.2352 266.9014 14.81670095250087"}}, "geometry": {"type": "Point", "coordinates": [-118.38032175467892, 12.897133598541815]}}, {"type": "Feature", "properties": {"norad_id": 49070, "name": "PLEIADES NEO 4", "group": "resource", "lat": -13.079389890236842, "lon": 61.64250922916471, "alt_km": 628.7718523297008, "timestamp": "2025-12-13T08:49:15.351370+00:00", "meta": {"OBJECT_NAME": "PLEIADES NEO 4", "OBJECT_ID": "2021-073E", "EPOCH": "2025-12-12T08:34:07.569120", "MEAN_MOTION": 14.81676895, "ECCENTRICITY": 0.00012379, "INCLINATION": 97.8941, "RA_OF_ASC_NODE": 58.7994, "ARG_OF_PERICENTER": 92.1719, "MEAN_ANOMALY": 267.9635, "EPHEMERIS_TYPE": 0, "CLASSIFICATION_TYPE": "U", "NORAD_CAT_ID": 49070, "ELEMENT_SET_NO": 999, "REV_AT_EPOCH": 23370, "BSTAR": 3.8133e-06, "MEAN_MOTION_DOT": -2.2e-07, "MEAN_MOTION_DDOT": 0}, "tle": {"line1": "1 49070U 21073E   25346.35703205 -.00000022  00000+0  38133-5 0  9995", "line2": "2 49070  97.8941  58.7994 0001237  92.1719 267.9635 14.81676895233702"}}, "geometry": {"type": "Point", "coordinates": [61.64250922916471, -13.079389890236842]}}, {"type": "Feature", "properties": {"norad_id": 49260, "name": "LANDSAT 9", "group": "resource", "lat": -51.20926223187251, "lon": 65.81688919378156, "alt_km": 710.1125617640764, "timestamp": "2025-12-13T08:49:15.351381+00:00", "meta": {"OBJECT_NAME": "LANDSAT 9", "OBJECT_ID": "2021-088A", "EPOCH": "2025-12-12T18:13:34.427136", "MEAN_MOTION": 14.57098196, "ECCENTRICITY": 0.00011742, "INCLINATION": 98.2095, "RA_OF_ASC_NODE": 54.8703, "ARG_OF_PERICENTER": 89.1031, "MEAN_ANOMALY": 271.0302, "EPHEMERIS_TYPE": 0, "CLASSIFICATION_TYPE": "U", "NORAD_CAT_ID": 49260, "ELEMENT_SET_NO": 999, "REV_AT_EPOCH": 22385, "BSTAR": 0.00017250756, "MEAN_MOTION_DOT": 7.32e-06, "MEAN_MOTION_DDOT": 0}, "tle": {"line1": "1 49260U 21088A   25346.75942624  .00000732  00000+0  17251-3 0  9999", "line2": "2 49260  98.2095  54.8703 0001174  89.1031 271.0302 14.57098196223853"}}, "geometry": {"type": "Point", "coordinates": [65.81688919378156, -51.20926223187251]}}]}